1 41183U 15081E   19282.43087120 -.00000025  00000-0  32355-4 0  9999
2 41183  47.0052 339.9437 0000391 311.6232  48.4619 14.54765160201820
1 41183U 15081E   19282.56823088 -.00000021 +00000-0 +33399-4 0  9999
2 41183 047.0051 339.2985 0000383 311.8692 048.2159 14.54765223201842
1 41183U 15081E   19283.59842839 -.00000015  00000-0  34811-4 0  9991
2 41183  47.0050 334.4596 0000353 309.0365  51.0488 14.54765534201997
